{
  "type": "FeatureCollection",
  "features": [
    {
      "type": "Feature",
      "properties": {
        "norad_id": 30066,
        "name": "FENGYUN 1C DEB",
        "group": "fengyun-1c-debris",
        "lat": 81.157680323283,
        "lon": -98.90503803724086,
        "alt_km": 903.4946203416484,
        "timestamp": "2025-12-14T07:33:19.751033+00:00",
        "meta_object_name": "FENGYUN 1C DEB",
        "meta_object_id": "1999-025PT",
        "meta_epoch": "2025-12-13T13:07:06.384288",
        "meta_mean_motion": 14.19110194,
        "meta_eccentricity": 0.01166915,
        "meta_inclination": 98.6342,
        "meta_ra_of_asc_node": 337.9592,
        "meta_arg_of_pericenter": 259.5479,
        "meta_mean_anomaly": 226.402,
        "meta_ephemeris_type": 0,
        "meta_classification_type": "U",
        "meta_norad_cat_id": 30066,
        "meta_element_set_no": 999,
        "meta_rev_at_epoch": 97848,
        "meta_bstar": 0.00023742483,
        "meta_mean_motion_dot": 4.87e-06,
        "meta_mean_motion_ddot": 0,
        "tle_line1": "1 30066U 99025PT  25347.54660167  .00000487  00000+0  23742-3 0  9995",
        "tle_line2": "2 30066  98.6342 337.9592 0116691 259.5479 226.4020 14.19110194978485"
      },
      "geometry": {
        "type": "Point",
        "coordinates": [
          -98.90503803724086,
          81.157680323283
        ]
      }
    },
    {
      "type": "Feature",
      "properties": {
        "norad_id": 30067,
        "name": "FENGYUN 1C DEB",
        "group": "fengyun-1c-debris",
        "lat": 27.895641167808545,
        "lon": 59.129920141595,
        "alt_km": 825.0576351964055,
        "timestamp": "2025-12-14T07:33:19.751044+00:00",
        "meta_object_name": "FENGYUN 1C DEB",
        "meta_object_id": "1999-025PU",
        "meta_epoch": "2025-12-13T15:59:25.834272",
        "meta_mean_motion": 14.43690497,
        "meta_eccentricity": 0.01518306,
        "meta_inclination": 98.7656,
        "meta_ra_of_asc_node": 233.777,
        "meta_arg_of_pericenter": 15.3446,
        "meta_mean_anomaly": 6.4172,
        "meta_ephemeris_type": 0,
        "meta_classification_type": "U",
        "meta_norad_cat_id": 30067,
        "meta_element_set_no": 999,
        "meta_rev_at_epoch": 99212,
        "meta_bstar": 0.00057373822,
        "meta_mean_motion_dot": 2.189e-05,
        "meta_mean_motion_ddot": 0,
        "tle_line1": "1 30067U 99025PU  25347.66627123  .00002189  00000+0  57374-3 0  9993",
        "tle_line2": "2 30067  98.7656 233.7770 0151830  15.3446   6.4172 14.43690497992129"
      },
      "geometry": {
        "type": "Point",
        "coordinates": [
          59.129920141595,
          27.895641167808545
        ]
      }
    },
    {
      "type": "Feature",
      "properties": {
        "norad_id": 30068,
        "name": "FENGYUN 1C DEB",
        "group": "fengyun-1c-debris",
        "lat": -29.18619420441091,
        "lon": 151.15676020131576,
        "alt_km": 953.8638610038033,
        "timestamp": "2025-12-14T07:33:19.751055+00:00",
        "meta_object_name": "FENGYUN 1C DEB",
        "meta_object_id": "1999-025PV",
        "meta_epoch": "2025-12-13T05:02:52.416960",
        "meta_mean_motion": 14.12048435,
        "meta_eccentricity": 0.01899643,
        "meta_inclination": 98.7366,
        "meta_ra_of_asc_node": 335.0073,
        "meta_arg_of_pericenter": 347.5089,
        "meta_mean_anomaly": 12.141,
        "meta_ephemeris_type": 0,
        "meta_classification_type": "U",
        "meta_norad_cat_id": 30068,
        "meta_element_set_no": 999,
        "meta_rev_at_epoch": 97350,
        "meta_bstar": 0.00032525695,
        "meta_mean_motion_dot": 6.63e-06,
        "meta_mean_motion_ddot": 0,
        "tle_line1": "1 30068U 99025PV  25347.21032890  .00000663  00000+0  32526-3 0  9993",
        "tle_line2": "2 30068  98.7366 335.0073 0189964 347.5089  12.1410 14.12048435973507"
      },
      "geometry": {
        "type": "Point",
        "coordinates": [
          151.15676020131576,
          -29.18619420441091
        ]
      }
    },
    {
      "type": "Feature",
      "properties": {
        "norad_id": 30069,
        "name": "FENGYUN 1C DEB",
        "group": "fengyun-1c-debris",
        "lat": -72.07530453111663,
        "lon": 121.50002579237372,
        "alt_km": 915.6437281709996,
        "timestamp": "2025-12-14T07:33:19.751065+00:00",
        "meta_object_name": "FENGYUN 1C DEB",
        "meta_object_id": "1999-025PW",
        "meta_epoch": "2025-12-13T13:49:53.995296",
        "meta_mean_motion": 14.05224,
        "meta_eccentricity": 0.00498671,
        "meta_inclination": 98.801,
        "meta_ra_of_asc_node": 329.4,
        "meta_arg_of_pericenter": 50.8382,
        "meta_mean_anomaly": 69.8785,
        "meta_ephemeris_type": 0,
        "meta_classification_type": "U",
        "meta_norad_cat_id": 30069,
        "meta_element_set_no": 999,
        "meta_rev_at_epoch": 96858,
        "meta_bstar": 0.00029539645,
        "meta_mean_motion_dot": 4.4e-06,
        "meta_mean_motion_ddot": 0,
        "tle_line1": "1 30069U 99025PW  25347.57631939  .00000440  00000+0  29540-3 0  9997",
        "tle_line2": "2 30069  98.8010 329.4000 0049867  50.8382  69.8785 14.05224000968581"
      },
      "geometry": {
        "type": "Point",
        "coordinates": [
          121.50002579237372,
          -72.07530453111663
        ]
      }
    },
    {
      "type": "Feature",
      "properties": {
        "norad_id": 30070,
        "name": "FENGYUN 1C DEB",
        "group": "fengyun-1c-debris",
        "lat": 72.05097155893331,
        "lon": 21.088980376720674,
        "alt_km": 964.0366731538916,
        "timestamp": "2025-12-14T07:33:19.751075+00:00",
        "meta_object_name": "FENGYUN 1C DEB",
        "meta_object_id": "1999-025PX",
        "meta_epoch": "2025-12-13T14:56:33.421920",
        "meta_mean_motion": 14.09921379,
        "meta_eccentricity": 0.03280777,
        "meta_inclination": 98.2867,
        "meta_ra_of_asc_node": 47.1873,
        "meta_arg_of_pericenter": 316.4255,
        "meta_mean_anomaly": 202.874,
        "meta_ephemeris_type": 0,
        "meta_classification_type": "U",
        "meta_norad_cat_id": 30070,
        "meta_element_set_no": 999,
        "meta_rev_at_epoch": 95891,
        "meta_bstar": 0.0019635985,
        "meta_mean_motion_dot": 5.67e-05,
        "meta_mean_motion_ddot": 0,
        "tle_line1": "1 30070U 99025PX  25347.62260905  .00005670  00000+0  19636-2 0  9990",
        "tle_line2": "2 30070  98.2867  47.1873 0328077 316.4255 202.8740 14.09921379958915"
      },
      "geometry": {
        "type": "Point",
        "coordinates": [
          21.088980376720674,
          72.05097155893331
        ]
      }
    },
    {
      "type": "Feature",
      "properties": {
        "norad_id": 30071,
        "name": "FENGYUN 1C DEB",
        "group": "fengyun-1c-debris",
        "lat": 8.293612263094698,
        "lon": -91.10195556246337,
        "alt_km": 709.0979920540058,
        "timestamp": "2025-12-14T07:33:19.751086+00:00",
        "meta_object_name": "FENGYUN 1C DEB",
        "meta_object_id": "1999-025PY",
        "meta_epoch": "2025-12-13T12:53:31.081920",
        "meta_mean_motion": 14.52174983,
        "meta_eccentricity": 0.00392051,
        "meta_inclination": 98.6579,
        "meta_ra_of_asc_node": 86.8238,
        "meta_arg_of_pericenter": 107.353,
        "meta_mean_anomaly": 320.6505,
        "meta_ephemeris_type": 0,
        "meta_classification_type": "U",
        "meta_norad_cat_id": 30071,
        "meta_element_set_no": 999,
        "meta_rev_at_epoch": 98238,
        "meta_bstar": 0.0042716971,
        "meta_mean_motion_dot": 0.00017488,
        "meta_mean_motion_ddot": 0,
        "tle_line1": "1 30071U 99025PY  25347.53716530  .00017488  00000+0  42717-2 0  9997",
        "tle_line2": "2 30071  98.6579  86.8238 0039205 107.3530 320.6505 14.52174983982385"
      },
      "geometry": {
        "type": "Point",
        "coordinates": [
          -91.10195556246337,
          8.293612263094698
        ]
      }
    },
    {
      "type": "Feature",
      "properties": {
        "norad_id": 30072,
        "name": "FENGYUN 1C DEB",
        "group": "fengyun-1c-debris",
        "lat": 51.884936385308414,
        "lon": 124.91346594734014,
        "alt_km": 795.6200320683092,
        "timestamp": "2025-12-14T07:33:19.751096+00:00",
        "meta_object_name": "FENGYUN 1C DEB",
        "meta_object_id": "1999-025PZ",
        "meta_epoch": "2025-12-13T09:35:51.037728",
        "meta_mean_motion": 14.37804787,
        "meta_eccentricity": 0.00596907,
        "meta_inclination": 99.0757,
        "meta_ra_of_asc_node": 135.7039,
        "meta_arg_of_pericenter": 270.6184,
        "meta_mean_anomaly": 88.8161,
        "meta_ephemeris_type": 0,
        "meta_classification_type": "U",
        "meta_norad_cat_id": 30072,
        "meta_element_set_no": 999,
        "meta_rev_at_epoch": 97180,
        "meta_bstar": 0.0053795035,
        "meta_mean_motion_dot": 0.00016535,
        "meta_mean_motion_ddot": 0,
        "tle_line1": "1 30072U 99025PZ  25347.39989627  .00016535  00000+0  53795-2 0  9991",
        "tle_line2": "2 30072  99.0757 135.7039 0059690 270.6184  88.8161 14.37804787971802"
      },
      "geometry": {
        "type": "Point",
        "coordinates": [
          124.91346594734014,
          51.884936385308414
        ]
      }
    }
  ]
}